{"type": "FeatureCollection", "features": [ {"type": "Feature", "properties": {"norad_id": 30306, "name": "FENGYUN 1C DEB", "group": "fengyun-1c-debris", "lat": -48.36537802764061, "lon": 48.54530634866417, "alt_km": 725.5293291005919, "timestamp": "2025-12-23T20:42:37.351280+00:00", "meta": {"OBJECT_NAME": "FENGYUN 1C DEB", "OBJECT_ID": "1999-025ZT", "EPOCH": "2025-12-23T02:26:25.826784", "MEAN_MOTION": 14.28252306, "ECCENTRICITY": 0.01129999, "INCLINATION": 98.5858, "RA_OF_ASC_NODE": 38.0112, "ARG_OF_PERICENTER": 326.8902, "MEAN_ANOMALY": 32.524, "EPHEMERIS_TYPE": 0, "CLASSIFICATION_TYPE": "U", "NORAD_CAT_ID": 30306, "ELEMENT_SET_NO": 999, "REV_AT_EPOCH": 97829, "BSTAR": 0.00093773324, "MEAN_MOTION_DOT": 2.459e-05, "MEAN_MOTION_DDOT": 0}, "tle": {"line1": "1 30306U 99025ZT  25357.10168781  .00002459  00000+0  93773-3 0  9992", "line2": "2 30306  98.5858  38.0112 0112999 326.8902  32.5240 14.28252306978297"}}, "geometry": {"type": "Point", "coordinates": [48.54530634866417, -48.36537802764061]}}, {"type": "Feature", "properties": {"norad_id": 30309, "name": "FENGYUN 1C DEB", "group": "fengyun-1c-debris", "lat": -80.68969663084613, "lon": 152.584810603494, "alt_km": 943.0336952889511, "timestamp": "2025-12-23T20:42:37.351291+00:00", "meta": {"OBJECT_NAME": "FENGYUN 1C DEB", "OBJECT_ID": "1999-025ZW", "EPOCH": "2025-12-22T21:01:45.856416", "MEAN_MOTION": 13.93527458, "ECCENTRICITY": 0.0093749, "INCLINATION": 99.2246, "RA_OF_ASC_NODE": 54.0152, "ARG_OF_PERICENTER": 164.432, "MEAN_ANOMALY": 195.9758, "EPHEMERIS_TYPE": 0, "CLASSIFICATION_TYPE": "U", "NORAD_CAT_ID": 30309, "ELEMENT_SET_NO": 999, "REV_AT_EPOCH": 96174, "BSTAR": 0.0004212, "MEAN_MOTION_DOT": 5.28e-06, "MEAN_MOTION_DDOT": 0}, "tle": {"line1": "1 30309U 99025ZW  25356.87622519  .00000528  00000+0  42120-3 0  9997", "line2": "2 30309  99.2246  54.0152 0093749 164.4320 195.9758 13.93527458961746"}}, "geometry": {"type": "Point", "coordinates": [152.584810603494, -80.68969663084613]}}, {"type": "Feature", "properties": {"norad_id": 30310, "name": "FENGYUN 1C DEB", "group": "fengyun-1c-debris", "lat": 63.396052250217394, "lon": -0.650603880669059, "alt_km": 881.311414158492, "timestamp": "2025-12-23T20:42:37.351302+00:00", "meta": {"OBJECT_NAME": "FENGYUN 1C DEB", "OBJECT_ID": "1999-025ZX", "EPOCH": "2025-12-22T18:50:07.428480", "MEAN_MOTION": 14.08413171, "ECCENTRICITY": 0.02404963, "INCLINATION": 98.6639, "RA_OF_ASC_NODE": 16.0366, "ARG_OF_PERICENTER": 328.9877, "MEAN_ANOMALY": 29.7278, "EPHEMERIS_TYPE": 0, "CLASSIFICATION_TYPE": "U", "NORAD_CAT_ID": 30310, "ELEMENT_SET_NO": 999, "REV_AT_EPOCH": 96873, "BSTAR": 0.00055801453, "MEAN_MOTION_DOT": 1.202e-05, "MEAN_MOTION_DDOT": 0}, "tle": {"line1": "1 30310U 99025ZX  25356.78480820  .00001202  00000+0  55801-3 0  9996", "line2": "2 30310  98.6639  16.0366 0240496 328.9877  29.7278 14.08413171968739"}}, "geometry": {"type": "Point", "coordinates": [-0.650603880669059, 63.396052250217394]}}, {"type": "Feature", "properties": {"norad_id": 30311, "name": "FENGYUN 1C DEB", "group": "fengyun-1c-debris", "lat": 57.929664440165006, "lon": -71.97322066118112, "alt_km": 881.2648494657114, "timestamp": "2025-12-23T20:42:37.351312+00:00", "meta": {"OBJECT_NAME": "FENGYUN 1C DEB", "OBJECT_ID": "1999-025ZY", "EPOCH": "2025-12-22T19:43:22.760544", "MEAN_MOTION": 13.77897552, "ECCENTRICITY": 0.01656054, "INCLINATION": 99.1392, "RA_OF_ASC_NODE": 92.1376, "ARG_OF_PERICENTER": 170.3454, "MEAN_ANOMALY": 190.0947, "EPHEMERIS_TYPE": 0, "CLASSIFICATION_TYPE": "U", "NORAD_CAT_ID": 30311, "ELEMENT_SET_NO": 999, "REV_AT_EPOCH": 95099, "BSTAR": 0.00034584706, "MEAN_MOTION_DOT": 3.42e-06, "MEAN_MOTION_DDOT": 0}, "tle": {"line1": "1 30311U 99025ZY  25356.82179121  .00000342  00000+0  34585-3 0  9991", "line2": "2 30311  99.1392  92.1376 0165605 170.3454 190.0947 13.77897552950994"}}, "geometry": {"type": "Point", "coordinates": [-71.97322066118112, 57.929664440165006]}}, {"type": "Feature", "properties": {"norad_id": 30312, "name": "FENGYUN 1C DEB", "group": "fengyun-1c-debris", "lat": 56.354644676108315, "lon": 64.07295706671191, "alt_km": 737.8042860474425, "timestamp": "2025-12-23T20:42:37.351322+00:00", "meta": {"OBJECT_NAME": "FENGYUN 1C DEB", "OBJECT_ID": "1999-025ZZ", "EPOCH": "2025-12-23T04:08:32.881920", "MEAN_MOTION": 14.45991202, "ECCENTRICITY": 0.00122656, "INCLINATION": 98.8649, "RA_OF_ASC_NODE": 76.914, "ARG_OF_PERICENTER": 180.5961, "MEAN_ANOMALY": 245.4862, "EPHEMERIS_TYPE": 0, "CLASSIFICATION_TYPE": "U", "NORAD_CAT_ID": 30312, "ELEMENT_SET_NO": 999, "REV_AT_EPOCH": 98071, "BSTAR": 0.0025557719, "MEAN_MOTION_DOT": 9.074e-05, "MEAN_MOTION_DDOT": 0}, "tle": {"line1": "1 30312U 99025ZZ  25357.17260280  .00009074  00000+0  25558-2 0  9998", "line2": "2 30312  98.8649  76.9140 0012265 180.5961 245.4862 14.45991202980711"}}, "geometry": {"type": "Point", "coordinates": [64.07295706671191, 56.354644676108315]}}, {"type": "Feature", "properties": {"norad_id": 30313, "name": "FENGYUN 1C DEB", "group": "fengyun-1c-debris", "lat": 45.21762400119673, "lon": 75.10751025642001, "alt_km": 811.7684221990758, "timestamp": "2025-12-23T20:42:37.351333+00:00", "meta": {"OBJECT_NAME": "FENGYUN 1C DEB", "OBJECT_ID": "1999-025AAA", "EPOCH": "2025-12-23T05:35:28.444704", "MEAN_MOTION": 14.25529399, "ECCENTRICITY": 0.00569326, "INCLINATION": 98.8746, "RA_OF_ASC_NODE": 83.5281, "ARG_OF_PERICENTER": 304.7825, "MEAN_ANOMALY": 109.4791, "EPHEMERIS_TYPE": 0, "CLASSIFICATION_TYPE": "U", "NORAD_CAT_ID": 30313, "ELEMENT_SET_NO": 999, "REV_AT_EPOCH": 97239, "BSTAR": 0.0017424728, "MEAN_MOTION_DOT": 4.147e-05, "MEAN_MOTION_DDOT": 0}, "tle": {"line1": "1 30313U 99025AAA 25357.23296811  .00004147  00000+0  17425-2 0  9995", "line2": "2 30313  98.8746  83.5281 0056932 304.7825 109.4791 14.25529399972395"}}, "geometry": {"type": "Point", "coordinates": [75.10751025642001, 45.21762400119673]}}, {"type": "Feature", "properties": {"norad_id": 30314, "name": "FENGYUN 1C DEB", "group": "fengyun-1c-debris", "lat": 3.9438548466821977, "lon": 8.41823654581027, "alt_km": 982.2428223649795, "timestamp": "2025-12-23T20:42:37.351343+00:00", "meta": {"OBJECT_NAME": "FENGYUN 1C DEB", "OBJECT_ID": "1999-025AAB", "EPOCH": "2025-12-19T07:54:02.351232", "MEAN_MOTION": 14.0121396, "ECCENTRICITY": 0.0143407, "INCLINATION": 98.3834, "RA_OF_ASC_NODE": 183.6699, "ARG_OF_PERICENTER": 339.1457, "MEAN_ANOMALY": 20.3896, "EPHEMERIS_TYPE": 0, "CLASSIFICATION_TYPE": "U", "NORAD_CAT_ID": 30314, "ELEMENT_SET_NO": 999, "REV_AT_EPOCH": 96201, "BSTAR": 0.00090289, "MEAN_MOTION_DOT": 1.445e-05, "MEAN_MOTION_DDOT": 0}, "tle": {"line1": "1 30314U 99025AAB 25353.32919388  .00001445  00000+0  90289-3 0  9991", "line2": "2 30314  98.3834 183.6699 0143407 339.1457  20.3896 14.01213960962014"}}, "geometry": {"type": "Point", "coordinates": [8.41823654581027, 3.9438548466821977]}}, {"type": "Feature", "properties": {"norad_id": 30315, "name": "FENGYUN 1C DEB", "group": "fengyun-1c-debris", "lat": -23.638336918889483, "lon": 10.84382910018223, "alt_km": 809.133992364792, "timestamp": "2025-12-23T20:42:37.351354+00:00", "meta": {"OBJECT_NAME": "FENGYUN 1C DEB", "OBJECT_ID": "1999-025AAC", "EPOCH": "2025-12-22T23:06:08.246016", "MEAN_MOTION": 14.19078765, "ECCENTRICITY": 0.0034697, "INCLINATION": 98.6015, "RA_OF_ASC_NODE": 6.1716, "ARG_OF_PERICENTER": 330.6319, "MEAN_ANOMALY": 88.5594, "EPHEMERIS_TYPE": 0, "CLASSIFICATION_TYPE": "U", "NORAD_CAT_ID": 30315, "ELEMENT_SET_NO": 999, "REV_AT_EPOCH": 97852, "BSTAR": 0.0003124, "MEAN_MOTION_DOT": 6.14e-06, "MEAN_MOTION_DDOT": 0}, "tle": {"line1": "1 30315U 99025AAC 25356.96259544  .00000614  00000+0  31240-3 0  9995", "line2": "2 30315  98.6015   6.1716 0034697 330.6319  88.5594 14.19078765978526"}}, "geometry": {"type": "Point", "coordinates": [10.84382910018223, -23.638336918889483]}}, {"type": "Feature", "properties": {"norad_id": 30316, "name": "FENGYUN 1C DEB", "group": "fengyun-1c-debris", "lat": 70.73775407065555, "lon": 74.86374672087544, "alt_km": 688.9307221772597, "timestamp": "2025-12-23T20:42:37.351364+00:00", "meta": {"OBJECT_NAME": "FENGYUN 1C DEB", "OBJECT_ID": "1999-025AAD", "EPOCH": "2025-12-23T05:32:17.632032", "MEAN_MOTION": 14.56237616, "ECCENTRICITY": 0.00352106, "INCLINATION": 98.648, "RA_OF_ASC_NODE": 100.0267, "ARG_OF_PERICENTER": 6.9336, "MEAN_ANOMALY": 353.2341, "EPHEMERIS_TYPE": 0, "CLASSIFICATION_TYPE": "U", "NORAD_CAT_ID": 30316, "ELEMENT_SET_NO": 999, "REV_AT_EPOCH": 98489, "BSTAR": 0.0021395851, "MEAN_MOTION_DOT": 9.503e-05, "MEAN_MOTION_DDOT": 0}, "tle": {"line1": "1 30316U 99025AAD 25357.23075963  .00009503  00000+0  21396-2 0  9994", "line2": "2 30316  98.6480 100.0267 0035210   6.9336 353.2341 14.56237616984894"}}, "geometry": {"type": "Point", "coordinates": [74.86374672087544, 70.73775407065555]}}, {"type": "Feature", "properties": {"norad_id": 30317, "name": "FENGYUN 1C DEB", "group": "fengyun-1c-debris", "lat": -23.134682734290784, "lon": 174.23056365089033, "alt_km": 861.947932448491, "timestamp": "2025-12-23T20:42:37.351374+00:00", "meta": {"OBJECT_NAME": "FENGYUN 1C DEB", "OBJECT_ID": "1999-025AAE", "EPOCH": "2025-12-22T11:18:59.282208", "MEAN_MOTION": 14.06953007, "ECCENTRICITY": 0.00241516, "INCLINATION": 98.7866, "RA_OF_ASC_NODE": 356.6677, "ARG_OF_PERICENTER": 248.2109, "MEAN_ANOMALY": 111.649, "EPHEMERIS_TYPE": 0, "CLASSIFICATION_TYPE": "U", "NORAD_CAT_ID": 30317, "ELEMENT_SET_NO": 999, "REV_AT_EPOCH": 97150, "BSTAR": 3.9549386e-05, "MEAN_MOTION_DOT": 2.3e-07, "MEAN_MOTION_DDOT": 0}, "tle": {"line1": "1 30317U 99025AAE 25356.47151947  .00000023  00000+0  39549-4 0  9996", "line2": "2 30317  98.7866 356.6677 0024151 248.2109 111.6490 14.06953007971508"}}, "geometry": {"type": "Point", "coordinates": [174.23056365089033, -23.134682734290784]}}]}